[{"OBJECT_NAME":"STARLINK-11141 [DTC]","OBJECT_ID":"2024-113H","EPOCH":"2026-03-09T14:50:44.765088","MEAN_MOTION":15.6970663,"ECCENTRICITY":0.0001322,"INCLINATION":53.1596,"RA_OF_ASC_NODE":191.296,"ARG_OF_PERICENTER":65.177,"MEAN_ANOMALY":294.9386,"EPHEMERIS_TYPE":0,"CLASSIFICATION_TYPE":"U","NORAD_CAT_ID":60066,"ELEMENT_SET_NO":999,"REV_AT_EPOCH":9955,"BSTAR":3.0859e-6,"MEAN_MOTION_DOT":-2.15e-6,"MEAN_MOTION_DDOT":0},{"OBJECT_NAME":"TUSUR GO (RS78S)","OBJECT_ID":"2024-199AZ","EPOCH":"2026-03-09T22:48:41.341536","MEAN_MOTION":15.7089308,"ECCENTRICITY":0.00036127,"INCLINATION":97.3018,"RA_OF_ASC_NODE":306.7757,"ARG_OF_PERICENTER":269.724,"MEAN_ANOMALY":90.3609,"EPHEMERIS_TYPE":0,"CLASSIFICATION_TYPE":"U","NORAD_CAT_ID":61782,"ELEMENT_SET_NO":999,"REV_AT_EPOCH":11926,"BSTAR":0.0013446465,"MEAN_MOTION_DOT":0.00170473,"MEAN_MOTION_DDOT":0}]
